[
    {
        "Altitude(m)": 617710.654980003,
        "Argument of Periapsis(deg)": 0.0,
        "Eccentricity": 0.0,
        "Inclination(deg)": 60.0,
        "Latitude(deg)": -41.102701613846975,
        "Longitude(deg)": 169.96657257207448,
        "Mean Anomaly(deg)": -49.09089999999999,
        "RAAN(deg)": 300.0,
        "Satellite Name": "Test1 1339",
        "Satellite Number": 1339,
        "Semi-Major Axis(m)": 6980739.136638005,
        "Time(s)": 0
    },
    {
        "Altitude(m)": 617517.9536478786,
        "Argument of Periapsis(deg)": 0.00010418945913296404,
        "Eccentricity": 0.0,
        "Inclination(deg)": 60.0,
        "Latitude(deg)": -40.636909145812204,
        "Longitude(deg)": 170.46336742383988,
        "Mean Anomaly(deg)": -48.470793854538144,
        "RAAN(deg)": 299.99957995086027,
        "Satellite Name": "Test1 1339",
        "Satellite Number": 1339,
        "Semi-Major Axis(m)": 6980739.136638005,
        "Time(s)": 10
    },
    {
        "Altitude(m)": 617324.2752038288,
        "Argument of Periapsis(deg)": 0.0002083789182659281,
        "Eccentricity": 0.0,
        "Inclination(deg)": 60.0,
        "Latitude(deg)": -40.16859134486325,
        "Longitude(deg)": 170.9527344070472,
        "Mean Anomaly(deg)": -47.85068770907629,
        "RAAN(deg)": 299.99915990172053,
        "Satellite Name": "Test1 1339",
        "Satellite Number": 1339,
        "Semi-Major Axis(m)": 6980739.136638005,
        "Time(s)": 20
    },
    {
        "Altitude(m)": 617129.6936285725,
        "Argument of Periapsis(deg)": 0.00031256837739889213,
        "Eccentricity": 0.0,
        "Inclination(deg)": 60.0,
        "Latitude(deg)": -39.697821343109965,
        "Longitude(deg)": 171.43485797518673,
        "Mean Anomaly(deg)": -47.230581563614486,
        "RAAN(deg)": 299.9987398525808,
        "Satellite Name": "Test1 1339",
        "Satellite Number": 1339,
        "Semi-Major Axis(m)": 6980739.136638005,
        "Time(s)": 30
    },
    {
        "Altitude(m)": 616934.2831515516,
        "Argument of Periapsis(deg)": 0.0004167578365318562,
        "Eccentricity": 0.0,
        "Inclination(deg)": 60.0,
        "Latitude(deg)": -39.224670049993094,
        "Longitude(deg)": 171.9099196035901,
        "Mean Anomaly(deg)": -46.61047541815263,
        "RAAN(deg)": 299.99831980344106,
        "Satellite Name": "Test1 1339",
        "Satellite Number": 1339,
        "Semi-Major Axis(m)": 6980739.136638005,
        "Time(s)": 40
    },
    {
        "Altitude(m)": 616738.118218473,
        "Argument of Periapsis(deg)": 0.0005209472956648203,
        "Eccentricity": 0.0,
        "Inclination(deg)": 60.0,
        "Latitude(deg)": -38.749206224678026,
        "Longitude(deg)": 172.37809676623198,
        "Mean Anomaly(deg)": -45.990369272690785,
        "RAAN(deg)": 299.9978997543013,
        "Satellite Name": "Test1 1339",
        "Satellite Number": 1339,
        "Semi-Major Axis(m)": 6980739.136638005,
        "Time(s)": 50
    },
    {
        "Altitude(m)": 616541.2734587236,
        "Argument of Periapsis(deg)": 0.0006251367547977843,
        "Eccentricity": 0.0,
        "Inclination(deg)": 60.0,
        "Latitude(deg)": -38.271496546966794,
        "Longitude(deg)": 172.83956343628734,
        "Mean Anomaly(deg)": -45.37026312722893,
        "RAAN(deg)": 299.99747970516154,
        "Satellite Name": "Test1 1339",
        "Satellite Number": 1339,
        "Semi-Major Axis(m)": 6980739.136638005,
        "Time(s)": 60
    },
    {
        "Altitude(m)": 616343.8236526673,
        "Argument of Periapsis(deg)": 0.0007293262139307483,
        "Eccentricity": 0.0,
        "Inclination(deg)": 60.0,
        "Latitude(deg)": -37.79160568665555,
        "Longitude(deg)": 173.29449059644355,
        "Mean Anomaly(deg)": -44.75015698176713,
        "RAAN(deg)": 299.99705965602186,
        "Satellite Name": "Test1 1339",
        "Satellite Number": 1339,
        "Semi-Major Axis(m)": 6980739.136638005,
        "Time(s)": 70
    },
    {
        "Altitude(m)": 616145.8436988934,
        "Argument of Periapsis(deg)": 0.0008335156730637124,
        "Eccentricity": 0.0,
        "Inclination(deg)": 60.0,
        "Latitude(deg)": -37.30959637127986,
        "Longitude(deg)": 173.7430452450551,
        "Mean Anomaly(deg)": -44.13005083630527,
        "RAAN(deg)": 299.99663960688207,
        "Satellite Name": "Test1 1339",
        "Satellite Number": 1339,
        "Semi-Major Axis(m)": 6980739.136638005,
        "Time(s)": 80
    },
    {
        "Altitude(m)": 615947.4085813415,
        "Argument of Periapsis(deg)": 0.0009377051321966765,
        "Eccentricity": 0.0,
        "Inclination(deg)": 60.0,
        "Latitude(deg)": -36.82552945221115,
        "Longitude(deg)": 174.18539092292707,
        "Mean Anomaly(deg)": -43.50994469084342,
        "RAAN(deg)": 299.99621955774234,
        "Satellite Name": "Test1 1339",
        "Satellite Number": 1339,
        "Semi-Major Axis(m)": 6980739.136638005,
        "Time(s)": 90
    },
    {
        "Altitude(m)": 615748.5933363896,
        "Argument of Periapsis(deg)": 0.0010418945913296407,
        "Eccentricity": 0.0,
        "Inclination(deg)": 60.0,
        "Latitude(deg)": -36.33946396907166,
        "Longitude(deg)": 174.62168824697648,
        "Mean Anomaly(deg)": -42.889838545381565,
        "RAAN(deg)": 299.9957995086026,
        "Satellite Name": "Test1 1339",
        "Satellite Number": 1339,
        "Semi-Major Axis(m)": 6980739.136638005,
        "Time(s)": 100
    },
    {
        "Altitude(m)": 615549.4730199171,
        "Argument of Periapsis(deg)": 0.0011460840504626045,
        "Eccentricity": 0.0,
        "Inclination(deg)": 60.0,
        "Latitude(deg)": -35.8514572124456,
        "Longitude(deg)": 175.05209393708975,
        "Mean Anomaly(deg)": -42.26973239991977,
        "RAAN(deg)": 299.99537945946287,
        "Satellite Name": "Test1 1339",
        "Satellite Number": 1339,
        "Semi-Major Axis(m)": 6980739.136638005,
        "Time(s)": 110
    },
    {
        "Altitude(m)": 615350.1226742981,
        "Argument of Periapsis(deg)": 0.0012502735095955685,
        "Eccentricity": 0.0,
        "Inclination(deg)": 60.0,
        "Latitude(deg)": -35.36156478488143,
        "Longitude(deg)": 175.4767613611836,
        "Mean Anomaly(deg)": -41.649626254457914,
        "RAAN(deg)": 299.99495941032313,
        "Satellite Name": "Test1 1339",
        "Satellite Number": 1339,
        "Semi-Major Axis(m)": 6980739.136638005,
        "Time(s)": 120
    },
    {
        "Altitude(m)": 615150.6172954014,
        "Argument of Periapsis(deg)": 0.0013544629687285324,
        "Eccentricity": 0.0,
        "Inclination(deg)": 60.0,
        "Latitude(deg)": -34.86984066018103,
        "Longitude(deg)": 175.89584108492113,
        "Mean Anomaly(deg)": -41.02952010899616,
        "RAAN(deg)": 299.99453936118334,
        "Satellite Name": "Test1 1339",
        "Satellite Number": 1339,
        "Semi-Major Axis(m)": 6980739.136638005,
        "Time(s)": 130
    },
    {
        "Altitude(m)": 614951.0317995994,
        "Argument of Periapsis(deg)": 0.0014586524278614966,
        "Eccentricity": 0.0,
        "Inclination(deg)": 60.0,
        "Latitude(deg)": -34.37633724097674,
        "Longitude(deg)": 176.30947991259367,
        "Mean Anomaly(deg)": -40.40941396353431,
        "RAAN(deg)": 299.9941193120436,
        "Satellite Name": "Test1 1339",
        "Satellite Number": 1339,
        "Semi-Major Axis(m)": 6980739.136638005,
        "Time(s)": 140
    },
    {
        "Altitude(m)": 614751.4409907713,
        "Argument of Periapsis(deg)": 0.0015628418869944607,
        "Eccentricity": 0.0,
        "Inclination(deg)": 60.0,
        "Latitude(deg)": -33.88110541461432,
        "Longitude(deg)": 176.71782144435224,
        "Mean Anomaly(deg)": -39.78930781807251,
        "RAAN(deg)": 299.99369926290393,
        "Satellite Name": "Test1 1339",
        "Satellite Number": 1339,
        "Semi-Major Axis(m)": 6980739.136638005,
        "Time(s)": 150
    },
    {
        "Altitude(m)": 614551.9195273609,
        "Argument of Periapsis(deg)": 0.0016670313461274247,
        "Eccentricity": 0.0,
        "Inclination(deg)": 60.0,
        "Latitude(deg)": -33.384194607353955,
        "Longitude(deg)": 177.12100663640697,
        "Mean Anomaly(deg)": -39.169201672610654,
        "RAAN(deg)": 299.99327921376414,
        "Satellite Name": "Test1 1339",
        "Satellite Number": 1339,
        "Semi-Major Axis(m)": 6980739.136638005,
        "Time(s)": 160
    },
    {
        "Altitude(m)": 614352.541889455,
        "Argument of Periapsis(deg)": 0.0017712208052603888,
        "Eccentricity": 0.0,
        "Inclination(deg)": 60.0,
        "Latitude(deg)": -32.88565283690907,
        "Longitude(deg)": 177.5191728508581,
        "Mean Anomaly(deg)": -38.5490955271489,
        "RAAN(deg)": 299.9928591646244,
        "Satellite Name": "Test1 1339",
        "Satellite Number": 1339,
        "Semi-Major Axis(m)": 6980739.136638005,
        "Time(s)": 170
    },
    {
        "Altitude(m)": 614153.3823459583,
        "Argument of Periapsis(deg)": 0.001875410264393353,
        "Eccentricity": 0.0,
        "Inclination(deg)": 60.0,
        "Latitude(deg)": -32.38552676335172,
        "Longitude(deg)": 177.912454420485,
        "Mean Anomaly(deg)": -37.92898938168705,
        "RAAN(deg)": 299.9924391154847,
        "Satellite Name": "Test1 1339",
        "Satellite Number": 1339,
        "Semi-Major Axis(m)": 6980739.136638005,
        "Time(s)": 180
    },
    {
        "Altitude(m)": 613954.5149218075,
        "Argument of Periapsis(deg)": 0.0019795997235263173,
        "Eccentricity": 0.0,
        "Inclination(deg)": 60.0,
        "Latitude(deg)": -31.883861738412296,
        "Longitude(deg)": 178.3009832152422,
        "Mean Anomaly(deg)": -37.30888323622524,
        "RAAN(deg)": 299.99201906634494,
        "Satellite Name": "Test1 1339",
        "Satellite Number": 1339,
        "Semi-Major Axis(m)": 6980739.136638005,
        "Time(s)": 190
    }
]